2026-052G               
1 68204U 26052G   26079.58972120  .00005170  00000+0  31660-3 0  9994
2 68204  97.5377 155.7732 0009103 248.3050 111.7211 15.10593744   671
KZ-11 R/B               
1 68205U 26052H   26079.58351025  .00031531  18293-5  46898-3 0  9998
2 68205  97.3427 155.7258 0548963 358.7558   1.2247 14.66685681   652
2026-052J               
1 68206U 26052J   26079.17399036  .00053223  21065-5  78049-3 0  9994
2 68206  97.3434 155.3568 0548581   0.1683 359.9611 14.66909170   597
TEN-KOH 2               
1 68261U 25241B   26079.18687591  .00006967  00000+0  30984-3 0  9990
2 68261  51.6352  22.9443 0004459 191.7138 168.3736 15.22564747  1348
