[{"OBJECT_NAME":"2026-052G","OBJECT_ID":"2026-052G","EPOCH":"2026-03-20T14:09:11.911680","MEAN_MOTION":15.10593744,"ECCENTRICITY":0.00091032,"INCLINATION":97.5377,"RA_OF_ASC_NODE":155.7732,"ARG_OF_PERICENTER":248.305,"MEAN_ANOMALY":111.7211,"EPHEMERIS_TYPE":0,"CLASSIFICATION_TYPE":"U","NORAD_CAT_ID":68204,"ELEMENT_SET_NO":999,"REV_AT_EPOCH":67,"BSTAR":0.00031660179,"MEAN_MOTION_DOT":5.17e-5,"MEAN_MOTION_DDOT":0},{"OBJECT_NAME":"KZ-11 R/B","OBJECT_ID":"2026-052H","EPOCH":"2026-03-20T14:00:15.285600","MEAN_MOTION":14.66685681,"ECCENTRICITY":0.05489637,"INCLINATION":97.3427,"RA_OF_ASC_NODE":155.7258,"ARG_OF_PERICENTER":358.7558,"MEAN_ANOMALY":1.2247,"EPHEMERIS_TYPE":0,"CLASSIFICATION_TYPE":"U","NORAD_CAT_ID":68205,"ELEMENT_SET_NO":999,"REV_AT_EPOCH":65,"BSTAR":0.00046898219,"MEAN_MOTION_DOT":0.00031531,"MEAN_MOTION_DDOT":1.829342e-6},{"OBJECT_NAME":"2026-052J","OBJECT_ID":"2026-052J","EPOCH":"2026-03-20T04:10:32.767104","MEAN_MOTION":14.6690917,"ECCENTRICITY":0.05485814,"INCLINATION":97.3434,"RA_OF_ASC_NODE":155.3568,"ARG_OF_PERICENTER":0.1683,"MEAN_ANOMALY":359.9611,"EPHEMERIS_TYPE":0,"CLASSIFICATION_TYPE":"U","NORAD_CAT_ID":68206,"ELEMENT_SET_NO":999,"REV_AT_EPOCH":59,"BSTAR":0.00078048683,"MEAN_MOTION_DOT":0.00053223,"MEAN_MOTION_DDOT":2.106529e-6},{"OBJECT_NAME":"TEN-KOH 2","OBJECT_ID":"2025-241B","EPOCH":"2026-03-20T04:29:06.078624","MEAN_MOTION":15.22564747,"ECCENTRICITY":0.00044597,"INCLINATION":51.6352,"RA_OF_ASC_NODE":22.9443,"ARG_OF_PERICENTER":191.7138,"MEAN_ANOMALY":168.3736,"EPHEMERIS_TYPE":0,"CLASSIFICATION_TYPE":"U","NORAD_CAT_ID":68261,"ELEMENT_SET_NO":999,"REV_AT_EPOCH":134,"BSTAR":0.00030984467,"MEAN_MOTION_DOT":6.967e-5,"MEAN_MOTION_DDOT":0}]
